{
    "links": {
        "self": "http://www.neowsapp.com/rest/v1/neo/3698532?api_key=iIulBulltgU6a56xZRHN4H3l9WmuAYTsLGpBGhQ2"
    },
    "id": "3698532",
    "neo_reference_id": "3698532",
    "name": "(2014 HF198)",
    "designation": "2014 HF198",
    "nasa_jpl_url": "http://ssd.jpl.nasa.gov/sbdb.cgi?sstr=3698532",
    "absolute_magnitude_h": 27.4,
    "estimated_diameter": {
        "kilometers": {
            "estimated_diameter_min": 0.0088014652,
            "estimated_diameter_max": 0.0196806745
        },
        "meters": {
            "estimated_diameter_min": 8.801465209,
            "estimated_diameter_max": 19.6806745089
        },
        "miles": {
            "estimated_diameter_min": 0.0054689752,
            "estimated_diameter_max": 0.0122290004
        },
        "feet": {
            "estimated_diameter_min": 28.8761991163,
            "estimated_diameter_max": 64.5691441559
        }
    },
    "is_potentially_hazardous_asteroid": false,
    "close_approach_data": [
        {
            "close_approach_date": "2014-05-05",
            "close_approach_date_full": "2014-May-05 09:19",
            "epoch_date_close_approach": 1399281540000,
            "relative_velocity": {
                "kilometers_per_second": "8.5096478668",
                "kilometers_per_hour": "30634.7323206144",
                "miles_per_hour": "19035.2313133284"
            },
            "miss_distance": {
                "astronomical": "0.103555383",
                "lunar": "40.283043987",
                "kilometers": "15491664.72383421",
                "miles": "9626074.092403698"
            },
            "orbiting_body": "Earth"
        }
    ],
    "orbital_data": {
        "orbit_id": "3",
        "orbit_determination_date": "2017-04-06 08:40:52",
        "first_observation_date": "2014-04-25",
        "last_observation_date": "2014-04-26",
        "data_arc_in_days": 1,
        "observations_used": 16,
        "orbit_uncertainty": "9",
        "minimum_orbit_intersection": ".10349",
        "jupiter_tisserand_invariant": "4.374",
        "epoch_osculation": "2456773.5",
        "eccentricity": ".2934280658834865",
        "semi_major_axis": "1.546461866277131",
        "inclination": "14.451173951912",
        "ascending_node_longitude": "217.0123195347238",
        "orbital_period": "702.4367904671963",
        "perihelion_distance": "1.092686551892866",
        "perihelion_argument": "26.36366494512584",
        "aphelion_distance": "2.000237180661397",
        "perihelion_time": "2456802.057660264870",
        "mean_anomaly": "345.3641525687808",
        "mean_motion": ".5125016298769903",
        "equinox": "J2000",
        "orbit_class": {
            "orbit_class_type": "AMO",
            "orbit_class_description": "Near-Earth asteroid orbits similar to that of 1221 Amor",
            "orbit_class_range": "1.017 AU < q (perihelion) < 1.3 AU"
        }
    },
    "is_sentry_object": false
}